0 YAOGAN 9B
1 36414U 10009B   13282.11893446 -.00000090  00000-0  30867-6 0   441
2 36414 063.4082 051.2257 0125379 359.1467 000.9329 13.45077571176745
0 YAOGAN 9B
1 36414U 10009B   13282.41631498 -.00000097  00000-0 -11191-4 0   457
2 36414 063.4083 050.4623 0125403 359.1491 000.9299 13.45077519176781
0 YAOGAN 9B
1 36414U 10009B   13282.49066020 -.00000101  00000-0 -17143-4 0   468
2 36414 063.4084 050.2712 0125409 359.1495 000.9296 13.45077485176799
0 YAOGAN 9B
1 36414U 10009B   13282.71369571 -.00000099  00000-0 -13823-4 0   478
2 36414 063.4085 049.6983 0125464 359.1370 000.9422 13.45077496176822
0 YAOGAN 9B
1 36414U 10009B   13283.82887310 -.00000105  00000-0 -24009-4 0   495
2 36414 063.4089 046.8358 0125650 359.1236 000.9550 13.45077466176974
0 YAOGAN 9B
1 36414U 10009B   13286.05922751 -.00000085  00000-0  88830-5 0   525
2 36414 063.4095 041.1101 0125734 359.1225 000.9565 13.45077615177272
0 YAOGAN 9B
1 36414U 10009B   13286.72833384 -.00000078  00000-0  19550-4 0   537
2 36414 063.4097 039.3924 0125810 359.1231 000.9563 13.45077716177368
0 YAOGAN 9B
1 36414U 10009B   13287.76916578 -.00000063  00000-0  43402-4 0   547
2 36414 063.4097 036.7199 0125880 359.1222 000.9582 13.45077883177502
0 YAOGAN 9B
1 36414U 10009B   13288.06654594 -.00000061  00000-0  46920-4 0   555
2 36414 063.4096 035.9562 0125913 359.1166 000.9622 13.45077923177544
0 YAOGAN 9B
1 36414U 10009B   13288.73565214 -.00000049  00000-0  65612-4 0   565
2 36414 063.4098 034.2380 0126024 359.1004 000.9790 13.45078092177635
0 YAOGAN 9B
1 36414U 10009B   13289.77648351 -.00000032  00000-0  93594-4 0   577
2 36414 063.4101 031.5664 0126192 359.0979 000.9805 13.45078376177778
0 YAOGAN 9B
1 36414U 10009B   13291.11469588 -.00000044  00000-0  74584-4 0   594
2 36414 063.4101 028.1308 0126359 359.0937 000.9851 13.45078389177959
0 YAOGAN 9B
1 36414U 10009B   13292.52725296 -.00000058  00000-0  51862-4 0   602
2 36414 063.4104 024.5043 0126382 359.1127 000.9649 13.45078324178142
0 YAOGAN 9B
1 36414U 10009B   13293.64243005 -.00000069  00000-0  33390-4 0   618
2 36414 063.4107 021.6425 0126529 359.1091 000.9682 13.45078258178299
0 YAOGAN 9B
1 36414U 10009B   13294.31153630 -.00000093  00000-0 -51695-5 0   625
2 36414 063.4105 019.9242 0126529 359.1249 000.9529 13.45078073178384
0 YAOGAN 9B
1 36414U 10009B   13295.42671297 -.00000069  00000-0  34823-4 0   638
2 36414 063.4110 017.0622 0126688 359.1194 000.9591 13.45078383178536
0 YAOGAN 9B
1 36414U 10009B   13295.72409337 -.00000072  00000-0  29984-4 0   642
2 36414 063.4110 016.2987 0126666 359.1256 000.9525 13.45078352178573
